CCSDS_OMM_VERS = 2.0
CREATION_DATE  = 
ORIGINATOR     = 

OBJECT_NAME    = SL-16 R/B
OBJECT_ID      = 1998-045B
CENTER_NAME    = EARTH
REF_FRAME      = TEME
TIME_SYSTEM    = UTC
MEAN_ELEMENT_THEORY = SGP/SGP4

EPOCH          = 2026-03-20T15:54:04.470336
MEAN_MOTION    = 14.16195386
ECCENTRICITY   = .0007501
INCLINATION    = 71.0119
RA_OF_ASC_NODE = 158.5002
ARG_OF_PERICENTER = 350.5968
MEAN_ANOMALY   = 9.5014

EPHEMERIS_TYPE = 0
CLASSIFICATION_TYPE = U
NORAD_CAT_ID   = 25407
ELEMENT_SET_NO = 999
REV_AT_EPOCH   = 42865
BSTAR          = .42266E-4
MEAN_MOTION_DOT = .36E-6
MEAN_MOTION_DDOT = 0

CCSDS_OMM_VERS = 2.0
CREATION_DATE  = 
ORIGINATOR     = 

OBJECT_NAME    = ISS (ZARYA)
OBJECT_ID      = 1998-067A
CENTER_NAME    = EARTH
REF_FRAME      = TEME
TIME_SYSTEM    = UTC
MEAN_ELEMENT_THEORY = SGP/SGP4

EPOCH          = 2026-03-20T20:55:56.726976
MEAN_MOTION    = 15.48402839
ECCENTRICITY   = .0006366
INCLINATION    = 51.6346
RA_OF_ASC_NODE = 17.0785
ARG_OF_PERICENTER = 213.2716
MEAN_ANOMALY   = 146.7873

EPHEMERIS_TYPE = 0
CLASSIFICATION_TYPE = U
NORAD_CAT_ID   = 25544
ELEMENT_SET_NO = 999
REV_AT_EPOCH   = 55806
BSTAR          = .18573E-3
MEAN_MOTION_DOT = .959E-4
MEAN_MOTION_DDOT = 0

CCSDS_OMM_VERS = 2.0
CREATION_DATE  = 
ORIGINATOR     = 

OBJECT_NAME    = CZ-4B R/B
OBJECT_ID      = 1999-025C
CENTER_NAME    = EARTH
REF_FRAME      = TEME
TIME_SYSTEM    = UTC
MEAN_ELEMENT_THEORY = SGP/SGP4

EPOCH          = 2026-03-20T13:14:35.126880
MEAN_MOTION    = 14.18267375
ECCENTRICITY   = .0036238
INCLINATION    = 98.6604
RA_OF_ASC_NODE = 123.5750
ARG_OF_PERICENTER = 314.8829
MEAN_ANOMALY   = 218.0190

EPHEMERIS_TYPE = 0
CLASSIFICATION_TYPE = U
NORAD_CAT_ID   = 25732
ELEMENT_SET_NO = 999
REV_AT_EPOCH   = 38970
BSTAR          = .40917385E-4
MEAN_MOTION_DOT = .41E-6
MEAN_MOTION_DDOT = 0

CCSDS_OMM_VERS = 2.0
CREATION_DATE  = 
ORIGINATOR     = 

OBJECT_NAME    = OKEAN-O
OBJECT_ID      = 1999-039A
CENTER_NAME    = EARTH
REF_FRAME      = TEME
TIME_SYSTEM    = UTC
MEAN_ELEMENT_THEORY = SGP/SGP4

EPOCH          = 2026-03-20T09:34:55.803072
MEAN_MOTION    = 14.80351578
ECCENTRICITY   = .00009736
INCLINATION    = 97.9419
RA_OF_ASC_NODE = 139.1808
ARG_OF_PERICENTER = 77.1336
MEAN_ANOMALY   = 282.9985

EPHEMERIS_TYPE = 0
CLASSIFICATION_TYPE = U
NORAD_CAT_ID   = 25860
ELEMENT_SET_NO = 999
REV_AT_EPOCH   = 43597
BSTAR          = .78521644E-4
MEAN_MOTION_DOT = .547E-5
MEAN_MOTION_DDOT = 0

CCSDS_OMM_VERS = 2.0
CREATION_DATE  = 
ORIGINATOR     = 

OBJECT_NAME    = SL-16 R/B
OBJECT_ID      = 1999-039B
CENTER_NAME    = EARTH
REF_FRAME      = TEME
TIME_SYSTEM    = UTC
MEAN_ELEMENT_THEORY = SGP/SGP4

EPOCH          = 2026-03-20T10:28:40.276128
MEAN_MOTION    = 14.81745162
ECCENTRICITY   = .00139463
INCLINATION    = 97.9943
RA_OF_ASC_NODE = 138.5161
ARG_OF_PERICENTER = 218.4075
MEAN_ANOMALY   = 141.6145

EPHEMERIS_TYPE = 0
CLASSIFICATION_TYPE = U
NORAD_CAT_ID   = 25861
ELEMENT_SET_NO = 999
REV_AT_EPOCH   = 43845
BSTAR          = .6235682E-4
MEAN_MOTION_DOT = .438E-5
MEAN_MOTION_DDOT = 0

CCSDS_OMM_VERS = 2.0
CREATION_DATE  = 
ORIGINATOR     = 

OBJECT_NAME    = DELTA 2 R/B
OBJECT_ID      = 1999-041E
CENTER_NAME    = EARTH
REF_FRAME      = TEME
TIME_SYSTEM    = UTC
MEAN_ELEMENT_THEORY = SGP/SGP4

EPOCH          = 2026-03-20T20:08:29.803776
MEAN_MOTION    = 14.11864714
ECCENTRICITY   = .0502609
INCLINATION    = 51.7605
RA_OF_ASC_NODE = 256.7425
ARG_OF_PERICENTER = 21.3188
MEAN_ANOMALY   = 340.7897

EPHEMERIS_TYPE = 0
CLASSIFICATION_TYPE = U
NORAD_CAT_ID   = 25876
ELEMENT_SET_NO = 999
REV_AT_EPOCH   = 36460
BSTAR          = .89797E-4
MEAN_MOTION_DOT = .311E-5
MEAN_MOTION_DDOT = 0

CCSDS_OMM_VERS = 2.0
CREATION_DATE  = 
ORIGINATOR     = 

OBJECT_NAME    = HELIOS 1B
OBJECT_ID      = 1999-064A
CENTER_NAME    = EARTH
REF_FRAME      = TEME
TIME_SYSTEM    = UTC
MEAN_ELEMENT_THEORY = SGP/SGP4

EPOCH          = 2026-03-20T16:14:42.321408
MEAN_MOTION    = 14.87739205
ECCENTRICITY   = .0002182
INCLINATION    = 98.1683
RA_OF_ASC_NODE = 342.2425
ARG_OF_PERICENTER = 59.5120
MEAN_ANOMALY   = 300.6311

EPHEMERIS_TYPE = 0
CLASSIFICATION_TYPE = U
NORAD_CAT_ID   = 25977
ELEMENT_SET_NO = 999
REV_AT_EPOCH   = 68689
BSTAR          = .17135E-3
MEAN_MOTION_DOT = .1504E-4
MEAN_MOTION_DDOT = 0

CCSDS_OMM_VERS = 2.0
CREATION_DATE  = 
ORIGINATOR     = 

OBJECT_NAME    = TERRA
OBJECT_ID      = 1999-068A
CENTER_NAME    = EARTH
REF_FRAME      = TEME
TIME_SYSTEM    = UTC
MEAN_ELEMENT_THEORY = SGP/SGP4

EPOCH          = 2026-03-20T21:35:38.863104
MEAN_MOTION    = 14.61025678
ECCENTRICITY   = .0003319
INCLINATION    = 97.9570
RA_OF_ASC_NODE = 132.9050
ARG_OF_PERICENTER = 127.5164
MEAN_ANOMALY   = 45.3666

EPHEMERIS_TYPE = 0
CLASSIFICATION_TYPE = U
NORAD_CAT_ID   = 25994
ELEMENT_SET_NO = 999
REV_AT_EPOCH   = 39671
BSTAR          = .79159E-4
MEAN_MOTION_DOT = .344E-5
MEAN_MOTION_DDOT = 0

CCSDS_OMM_VERS = 2.0
CREATION_DATE  = 
ORIGINATOR     = 

OBJECT_NAME    = SL-16 R/B
OBJECT_ID      = 2000-006B
CENTER_NAME    = EARTH
REF_FRAME      = TEME
TIME_SYSTEM    = UTC
MEAN_ELEMENT_THEORY = SGP/SGP4

EPOCH          = 2026-03-20T16:20:23.756928
MEAN_MOTION    = 14.15823588
ECCENTRICITY   = .0016177
INCLINATION    = 71.0005
RA_OF_ASC_NODE = 74.7242
ARG_OF_PERICENTER = 172.9694
MEAN_ANOMALY   = 187.1659

EPHEMERIS_TYPE = 0
CLASSIFICATION_TYPE = U
NORAD_CAT_ID   = 26070
ELEMENT_SET_NO = 999
REV_AT_EPOCH   = 35011
BSTAR          = -.57105E-5
MEAN_MOTION_DOT = -.59E-6
MEAN_MOTION_DDOT = 0

CCSDS_OMM_VERS = 2.0
CREATION_DATE  = 
ORIGINATOR     = 

OBJECT_NAME    = TITAN 4B R/B
OBJECT_ID      = 2000-047B
CENTER_NAME    = EARTH
REF_FRAME      = TEME
TIME_SYSTEM    = UTC
MEAN_ELEMENT_THEORY = SGP/SGP4

EPOCH          = 2026-03-20T19:51:33.688800
MEAN_MOTION    = 15.09663383
ECCENTRICITY   = .0039244
INCLINATION    = 67.9913
RA_OF_ASC_NODE = 9.1895
ARG_OF_PERICENTER = 22.2214
MEAN_ANOMALY   = 338.0625

EPHEMERIS_TYPE = 0
CLASSIFICATION_TYPE = U
NORAD_CAT_ID   = 26474
ELEMENT_SET_NO = 999
REV_AT_EPOCH   = 39459
BSTAR          = .22759E-3
MEAN_MOTION_DOT = .3602E-4
MEAN_MOTION_DDOT = 0

CCSDS_OMM_VERS = 2.0
CREATION_DATE  = 
ORIGINATOR     = 

OBJECT_NAME    = ENVISAT
OBJECT_ID      = 2002-009A
CENTER_NAME    = EARTH
REF_FRAME      = TEME
TIME_SYSTEM    = UTC
MEAN_ELEMENT_THEORY = SGP/SGP4

EPOCH          = 2026-03-20T20:50:39.929280
MEAN_MOTION    = 14.39040749
ECCENTRICITY   = .0001283
INCLINATION    = 98.3748
RA_OF_ASC_NODE = 33.2009
ARG_OF_PERICENTER = 81.9691
MEAN_ANOMALY   = 300.1485

EPHEMERIS_TYPE = 0
CLASSIFICATION_TYPE = U
NORAD_CAT_ID   = 27386
ELEMENT_SET_NO = 999
REV_AT_EPOCH   = 26078
BSTAR          = .49787E-4
MEAN_MOTION_DOT = .111E-5
MEAN_MOTION_DDOT = 0

CCSDS_OMM_VERS = 2.0
CREATION_DATE  = 
ORIGINATOR     = 

OBJECT_NAME    = IDEFIX & ARIANE 42P R/B
OBJECT_ID      = 2002-021B
CENTER_NAME    = EARTH
REF_FRAME      = TEME
TIME_SYSTEM    = UTC
MEAN_ELEMENT_THEORY = SGP/SGP4

EPOCH          = 2026-03-20T18:04:14.681280
MEAN_MOTION    = 14.31033319
ECCENTRICITY   = .001221
INCLINATION    = 98.5883
RA_OF_ASC_NODE = 18.2277
ARG_OF_PERICENTER = 150.0014
MEAN_ANOMALY   = 210.1871

EPHEMERIS_TYPE = 0
CLASSIFICATION_TYPE = U
NORAD_CAT_ID   = 27422
ELEMENT_SET_NO = 999
REV_AT_EPOCH   = 24560
BSTAR          = .10899E-3
MEAN_MOTION_DOT = .243E-5
MEAN_MOTION_DDOT = 0

